{
  "type": "FeatureCollection",
  "features": [
    {
      "type": "Feature",
      "properties": {
        "norad_id": 40010,
        "name": "KAZEOSAT 2",
        "group": "resource",
        "lat": -49.75335619337267,
        "lon": -151.8710092107514,
        "alt_km": 623.8945371379968,
        "timestamp": "2025-12-21T05:44:51.232872+00:00",
        "meta_object_name": "KAZEOSAT 2",
        "meta_object_id": "2014-033A",
        "meta_epoch": "2025-12-20T21:53:21.807744",
        "meta_mean_motion": 14.8517918,
        "meta_eccentricity": 0.00083551,
        "meta_inclination": 97.5497,
        "meta_ra_of_asc_node": 198.8043,
        "meta_arg_of_pericenter": 178.2049,
        "meta_mean_anomaly": 181.9198,
        "meta_ephemeris_type": 0,
        "meta_classification_type": "U",
        "meta_norad_cat_id": 40010,
        "meta_element_set_no": 999,
        "meta_rev_at_epoch": 62249,
        "meta_bstar": 5.1436313e-05,
        "meta_mean_motion_dot": 3.91e-06,
        "meta_mean_motion_ddot": 0,
        "tle_line1": "1 40010U 14033A   25354.91205796  .00000391  00000+0  51436-4 0  9999",
        "tle_line2": "2 40010  97.5497 198.8043 0008355 178.2049 181.9198 14.85179180622497"
      },
      "geometry": {
        "type": "Point",
        "coordinates": [
          -151.8710092107514,
          -49.75335619337267
        ]
      }
    },
    {
      "type": "Feature",
      "properties": {
        "norad_id": 40011,
        "name": "HODOYOSHI-4",
        "group": "resource",
        "lat": 70.38099805141192,
        "lon": 25.518326819742406,
        "alt_km": 591.5684974913756,
        "timestamp": "2025-12-21T05:44:51.232882+00:00",
        "meta_object_name": "HODOYOSHI-4",
        "meta_object_id": "2014-033B",
        "meta_epoch": "2025-12-20T22:48:16.287264",
        "meta_mean_motion": 14.87509706,
        "meta_eccentricity": 0.00238082,
        "meta_inclination": 97.5405,
        "meta_ra_of_asc_node": 183.4288,
        "meta_arg_of_pericenter": 172.9824,
        "meta_mean_anomaly": 187.1731,
        "meta_ephemeris_type": 0,
        "meta_classification_type": "U",
        "meta_norad_cat_id": 40011,
        "meta_element_set_no": 999,
        "meta_rev_at_epoch": 62230,
        "meta_bstar": 0.00020400581,
        "meta_mean_motion_dot": 1.807e-05,
        "meta_mean_motion_ddot": 0,
        "tle_line1": "1 40011U 14033B   25354.95018851  .00001807  00000+0  20401-3 0  9998",
        "tle_line2": "2 40011  97.5405 183.4288 0023808 172.9824 187.1731 14.87509706622304"
      },
      "geometry": {
        "type": "Point",
        "coordinates": [
          25.518326819742406,
          70.38099805141192
        ]
      }
    },
    {
      "type": "Feature",
      "properties": {
        "norad_id": 40013,
        "name": "DEIMOS-2",
        "group": "resource",
        "lat": 71.85969962197272,
        "lon": -153.31385174086518,
        "alt_km": 580.7243423213786,
        "timestamp": "2025-12-21T05:44:51.232892+00:00",
        "meta_object_name": "DEIMOS-2",
        "meta_object_id": "2014-033D",
        "meta_epoch": "2025-12-20T21:22:38.027424",
        "meta_mean_motion": 14.93009459,
        "meta_eccentricity": 0.00015077,
        "meta_inclination": 97.6068,
        "meta_ra_of_asc_node": 230.422,
        "meta_arg_of_pericenter": 103.9135,
        "meta_mean_anomaly": 256.2253,
        "meta_ephemeris_type": 0,
        "meta_classification_type": "U",
        "meta_norad_cat_id": 40013,
        "meta_element_set_no": 999,
        "meta_rev_at_epoch": 61111,
        "meta_bstar": 0.00023936689,
        "meta_mean_motion_dot": 2.434e-05,
        "meta_mean_motion_ddot": 0,
        "tle_line1": "1 40013U 14033D   25354.89071791  .00002434  00000+0  23937-3 0  9999",
        "tle_line2": "2 40013  97.6068 230.4220 0001507 103.9135 256.2253 14.93009459611113"
      },
      "geometry": {
        "type": "Point",
        "coordinates": [
          -153.31385174086518,
          71.85969962197272
        ]
      }
    },
    {
      "type": "Feature",
      "properties": {
        "norad_id": 40015,
        "name": "HODOYOSHI-3",
        "group": "resource",
        "lat": -47.11189597447401,
        "lon": 168.99214954749775,
        "alt_km": 622.2139418370789,
        "timestamp": "2025-12-21T05:44:51.232902+00:00",
        "meta_object_name": "HODOYOSHI-3",
        "meta_object_id": "2014-033F",
        "meta_epoch": "2025-12-20T21:52:32.664288",
        "meta_mean_motion": 14.84831555,
        "meta_eccentricity": 0.00322723,
        "meta_inclination": 97.6204,
        "meta_ra_of_asc_node": 160.3914,
        "meta_arg_of_pericenter": 220.0926,
        "meta_mean_anomaly": 139.7908,
        "meta_ephemeris_type": 0,
        "meta_classification_type": "U",
        "meta_norad_cat_id": 40015,
        "meta_element_set_no": 999,
        "meta_rev_at_epoch": 62116,
        "meta_bstar": 0.00013814017,
        "meta_mean_motion_dot": 1.131e-05,
        "meta_mean_motion_ddot": 0,
        "tle_line1": "1 40015U 14033F   25354.91148917  .00001131  00000+0  13814-3 0  9995",
        "tle_line2": "2 40015  97.6204 160.3914 0032272 220.0926 139.7908 14.84831555621168"
      },
      "geometry": {
        "type": "Point",
        "coordinates": [
          168.99214954749775,
          -47.11189597447401
        ]
      }
    },
    {
      "type": "Feature",
      "properties": {
        "norad_id": 40053,
        "name": "SPOT 7",
        "group": "resource",
        "lat": 18.959966735289566,
        "lon": 54.318501293817235,
        "alt_km": 690.5416843693256,
        "timestamp": "2025-12-21T05:44:51.232912+00:00",
        "meta_object_name": "SPOT 7",
        "meta_object_id": "2014-034A",
        "meta_epoch": "2025-12-20T23:05:03.185088",
        "meta_mean_motion": 14.60742865,
        "meta_eccentricity": 0.00015673,
        "meta_inclination": 98.0901,
        "meta_ra_of_asc_node": 56.8482,
        "meta_arg_of_pericenter": 85.3484,
        "meta_mean_anomaly": 274.7895,
        "meta_ephemeris_type": 0,
        "meta_classification_type": "U",
        "meta_norad_cat_id": 40053,
        "meta_element_set_no": 999,
        "meta_rev_at_epoch": 61111,
        "meta_bstar": 6.3510593e-05,
        "meta_mean_motion_dot": 2.64e-06,
        "meta_mean_motion_ddot": 0,
        "tle_line1": "1 40053U 14034A   25354.96184242  .00000264  00000+0  63511-4 0  9990",
        "tle_line2": "2 40053  98.0901  56.8482 0001567  85.3484 274.7895 14.60742865611110"
      },
      "geometry": {
        "type": "Point",
        "coordinates": [
          54.318501293817235,
          18.959966735289566
        ]
      }
    },
    {
      "type": "Feature",
      "properties": {
        "norad_id": 40072,
        "name": "SKYSAT-B",
        "group": "resource",
        "lat": 46.56292384548444,
        "lon": -69.54212307716463,
        "alt_km": 601.2329581149288,
        "timestamp": "2025-12-21T05:44:51.232922+00:00",
        "meta_object_name": "SKYSAT-B",
        "meta_object_id": "2014-037D",
        "meta_epoch": "2025-12-20T19:50:54.393216",
        "meta_mean_motion": 14.87352902,
        "meta_eccentricity": 0.00066439,
        "meta_inclination": 98.3623,
        "meta_ra_of_asc_node": 298.9605,
        "meta_arg_of_pericenter": 127.4898,
        "meta_mean_anomaly": 232.6921,
        "meta_ephemeris_type": 0,
        "meta_classification_type": "U",
        "meta_norad_cat_id": 40072,
        "meta_element_set_no": 999,
        "meta_rev_at_epoch": 61944,
        "meta_bstar": 0.00012991233,
        "meta_mean_motion_dot": 1.113e-05,
        "meta_mean_motion_ddot": 0,
        "tle_line1": "1 40072U 14037D   25354.82701844  .00001113  00000+0  12991-3 0  9991",
        "tle_line2": "2 40072  98.3623 298.9605 0006643 127.4898 232.6921 14.87352902619443"
      },
      "geometry": {
        "type": "Point",
        "coordinates": [
          -69.54212307716463,
          46.56292384548444
        ]
      }
    },
    {
      "type": "Feature",
      "properties": {
        "norad_id": 40115,
        "name": "WORLDVIEW-3 (WV-3)",
        "group": "resource",
        "lat": -51.17237212927735,
        "lon": -122.49051557485629,
        "alt_km": 621.7428188051999,
        "timestamp": "2025-12-21T05:44:51.232932+00:00",
        "meta_object_name": "WORLDVIEW-3 (WV-3)",
        "meta_object_id": "2014-048A",
        "meta_epoch": "2025-12-20T22:14:12.534144",
        "meta_mean_motion": 14.84664617,
        "meta_eccentricity": 0.00018234,
        "meta_inclination": 97.877,
        "meta_ra_of_asc_node": 67.1057,
        "meta_arg_of_pericenter": 135.8247,
        "meta_mean_anomaly": 224.3114,
        "meta_ephemeris_type": 0,
        "meta_classification_type": "U",
        "meta_norad_cat_id": 40115,
        "meta_element_set_no": 999,
        "meta_rev_at_epoch": 61545,
        "meta_bstar": 9.1978388e-05,
        "meta_mean_motion_dot": 7.25e-06,
        "meta_mean_motion_ddot": 0,
        "tle_line1": "1 40115U 14048A   25354.92653396  .00000725  00000+0  91978-4 0  9991",
        "tle_line2": "2 40115  97.8770  67.1057 0001823 135.8247 224.3114 14.84664617615456"
      },
      "geometry": {
        "type": "Point",
        "coordinates": [
          -122.49051557485629,
          -51.17237212927735
        ]
      }
    }
  ]
}